CCSDS_OMM_VERS = 2.0
CREATION_DATE  = 
ORIGINATOR     = 

OBJECT_NAME    = STARLINK-36943
OBJECT_ID      = 2026-040W
CENTER_NAME    = EARTH
REF_FRAME      = TEME
TIME_SYSTEM    = UTC
MEAN_ELEMENT_THEORY = SGP/SGP4

EPOCH          = 2026-03-22T20:00:01.999872
MEAN_MOTION    = 15.75343434
ECCENTRICITY   = .00020822
INCLINATION    = 97.2847
RA_OF_ASC_NODE = 30.9675
ARG_OF_PERICENTER = 111.6564
MEAN_ANOMALY   = 345.7621

EPHEMERIS_TYPE = 0
CLASSIFICATION_TYPE = U
NORAD_CAT_ID   = 68035
ELEMENT_SET_NO = 999
REV_AT_EPOCH   = 459
BSTAR          = -.15303563E-2
MEAN_MOTION_DOT = -.224034E-2
MEAN_MOTION_DDOT = 0

CCSDS_OMM_VERS = 2.0
CREATION_DATE  = 
ORIGINATOR     = 

OBJECT_NAME    = STARLINK-36906
OBJECT_ID      = 2026-040X
CENTER_NAME    = EARTH
REF_FRAME      = TEME
TIME_SYSTEM    = UTC
MEAN_ELEMENT_THEORY = SGP/SGP4

EPOCH          = 2026-03-22T20:00:01.999872
MEAN_MOTION    = 15.75336647
ECCENTRICITY   = .00013718
INCLINATION    = 97.2846
RA_OF_ASC_NODE = 30.9608
ARG_OF_PERICENTER = 70.2607
MEAN_ANOMALY   = 17.1402

EPHEMERIS_TYPE = 0
CLASSIFICATION_TYPE = U
NORAD_CAT_ID   = 68036
ELEMENT_SET_NO = 999
REV_AT_EPOCH   = 454
BSTAR          = -.11801679E-2
MEAN_MOTION_DOT = -.173733E-2
MEAN_MOTION_DDOT = 0

CCSDS_OMM_VERS = 2.0
CREATION_DATE  = 
ORIGINATOR     = 

OBJECT_NAME    = STARLINK-36388
OBJECT_ID      = 2026-040Y
CENTER_NAME    = EARTH
REF_FRAME      = TEME
TIME_SYSTEM    = UTC
MEAN_ELEMENT_THEORY = SGP/SGP4

EPOCH          = 2026-03-22T20:00:01.999872
MEAN_MOTION    = 15.75336709
ECCENTRICITY   = .00011607
INCLINATION    = 97.2847
RA_OF_ASC_NODE = 30.9634
ARG_OF_PERICENTER = 74.5935
MEAN_ANOMALY   = 20.7844

EPHEMERIS_TYPE = 0
CLASSIFICATION_TYPE = U
NORAD_CAT_ID   = 68037
ELEMENT_SET_NO = 999
REV_AT_EPOCH   = 449
BSTAR          = -.93993276E-3
MEAN_MOTION_DOT = -.13895E-2
MEAN_MOTION_DDOT = 0

CCSDS_OMM_VERS = 2.0
CREATION_DATE  = 
ORIGINATOR     = 

OBJECT_NAME    = STARLINK-36895
OBJECT_ID      = 2026-040Z
CENTER_NAME    = EARTH
REF_FRAME      = TEME
TIME_SYSTEM    = UTC
MEAN_ELEMENT_THEORY = SGP/SGP4

EPOCH          = 2026-03-22T20:00:01.999872
MEAN_MOTION    = 15.75303844
ECCENTRICITY   = .00013766
INCLINATION    = 97.2854
RA_OF_ASC_NODE = 30.9560
ARG_OF_PERICENTER = 89.8959
MEAN_ANOMALY   = 353.5142

EPHEMERIS_TYPE = 0
CLASSIFICATION_TYPE = U
NORAD_CAT_ID   = 68038
ELEMENT_SET_NO = 999
REV_AT_EPOCH   = 454
BSTAR          = -.69072424E-3
MEAN_MOTION_DOT = -.102435E-2
MEAN_MOTION_DDOT = 0

CCSDS_OMM_VERS = 2.0
CREATION_DATE  = 
ORIGINATOR     = 

OBJECT_NAME    = STARLINK-36373
OBJECT_ID      = 2026-040AA
CENTER_NAME    = EARTH
REF_FRAME      = TEME
TIME_SYSTEM    = UTC
MEAN_ELEMENT_THEORY = SGP/SGP4

EPOCH          = 2026-03-22T20:00:01.999872
MEAN_MOTION    = 15.75370521
ECCENTRICITY   = .00014436
INCLINATION    = 97.2850
RA_OF_ASC_NODE = 30.9544
ARG_OF_PERICENTER = 93.9205
MEAN_ANOMALY   = 345.4979

EPHEMERIS_TYPE = 0
CLASSIFICATION_TYPE = U
NORAD_CAT_ID   = 68039
ELEMENT_SET_NO = 999
REV_AT_EPOCH   = 449
BSTAR          = -.1818189E-2
MEAN_MOTION_DOT = -.265163E-2
MEAN_MOTION_DDOT = 0

CCSDS_OMM_VERS = 2.0
CREATION_DATE  = 
ORIGINATOR     = 

OBJECT_NAME    = STARLINK-36711
OBJECT_ID      = 2026-041A
CENTER_NAME    = EARTH
REF_FRAME      = TEME
TIME_SYSTEM    = UTC
MEAN_ELEMENT_THEORY = SGP/SGP4

EPOCH          = 2026-03-22T23:11:50.460000
MEAN_MOTION    = 15.75453789
ECCENTRICITY   = .00016124
INCLINATION    = 53.1588
RA_OF_ASC_NODE = 355.9450
ARG_OF_PERICENTER = 20.4231
MEAN_ANOMALY   = 339.6854

EPHEMERIS_TYPE = 0
CLASSIFICATION_TYPE = U
NORAD_CAT_ID   = 68040
ELEMENT_SET_NO = 999
REV_AT_EPOCH   = 331
BSTAR          = .19514004E-2
MEAN_MOTION_DOT = .312728E-2
MEAN_MOTION_DDOT = 0

CCSDS_OMM_VERS = 2.0
CREATION_DATE  = 
ORIGINATOR     = 

OBJECT_NAME    = STARLINK-36825
OBJECT_ID      = 2026-041B
CENTER_NAME    = EARTH
REF_FRAME      = TEME
TIME_SYSTEM    = UTC
MEAN_ELEMENT_THEORY = SGP/SGP4

EPOCH          = 2026-03-22T22:27:37.284480
MEAN_MOTION    = 15.81094977
ECCENTRICITY   = .00009326
INCLINATION    = 53.1589
RA_OF_ASC_NODE = 355.7397
ARG_OF_PERICENTER = 208.2428
MEAN_ANOMALY   = 151.8544

EPHEMERIS_TYPE = 0
CLASSIFICATION_TYPE = U
NORAD_CAT_ID   = 68041
ELEMENT_SET_NO = 999
REV_AT_EPOCH   = 331
BSTAR          = .23868193E-2
MEAN_MOTION_DOT = .504095E-2
MEAN_MOTION_DDOT = 0

CCSDS_OMM_VERS = 2.0
CREATION_DATE  = 
ORIGINATOR     = 

OBJECT_NAME    = STARLINK-36925
OBJECT_ID      = 2026-041C
CENTER_NAME    = EARTH
REF_FRAME      = TEME
TIME_SYSTEM    = UTC
MEAN_ELEMENT_THEORY = SGP/SGP4

EPOCH          = 2026-03-22T18:38:13.209792
MEAN_MOTION    = 15.75519516
ECCENTRICITY   = .0001235
INCLINATION    = 53.1584
RA_OF_ASC_NODE = 356.8928
ARG_OF_PERICENTER = 155.1515
MEAN_ANOMALY   = 204.9565

EPHEMERIS_TYPE = 0
CLASSIFICATION_TYPE = U
NORAD_CAT_ID   = 68042
ELEMENT_SET_NO = 999
REV_AT_EPOCH   = 328
BSTAR          = .30207071E-2
MEAN_MOTION_DOT = .496695E-2
MEAN_MOTION_DDOT = 0

CCSDS_OMM_VERS = 2.0
CREATION_DATE  = 
ORIGINATOR     = 

OBJECT_NAME    = STARLINK-36902
OBJECT_ID      = 2026-041D
CENTER_NAME    = EARTH
REF_FRAME      = TEME
TIME_SYSTEM    = UTC
MEAN_ELEMENT_THEORY = SGP/SGP4

EPOCH          = 2026-03-22T22:26:32.277984
MEAN_MOTION    = 15.81071249
ECCENTRICITY   = .00018618
INCLINATION    = 53.1590
RA_OF_ASC_NODE = 355.7364
ARG_OF_PERICENTER = 177.6730
MEAN_ANOMALY   = 182.4302

EPHEMERIS_TYPE = 0
CLASSIFICATION_TYPE = U
NORAD_CAT_ID   = 68043
ELEMENT_SET_NO = 999
REV_AT_EPOCH   = 331
BSTAR          = .2452351E-2
MEAN_MOTION_DOT = .518205E-2
MEAN_MOTION_DDOT = 0

CCSDS_OMM_VERS = 2.0
CREATION_DATE  = 
ORIGINATOR     = 

OBJECT_NAME    = STARLINK-36966
OBJECT_ID      = 2026-041E
CENTER_NAME    = EARTH
REF_FRAME      = TEME
TIME_SYSTEM    = UTC
MEAN_ELEMENT_THEORY = SGP/SGP4

EPOCH          = 2026-03-22T18:31:42.485664
MEAN_MOTION    = 15.75490725
ECCENTRICITY   = .0001204
INCLINATION    = 53.1590
RA_OF_ASC_NODE = 356.8628
ARG_OF_PERICENTER = 137.8092
MEAN_ANOMALY   = 222.3021

EPHEMERIS_TYPE = 0
CLASSIFICATION_TYPE = U
NORAD_CAT_ID   = 68044
ELEMENT_SET_NO = 999
REV_AT_EPOCH   = 328
BSTAR          = .31294259E-2
MEAN_MOTION_DOT = .51509E-2
MEAN_MOTION_DDOT = 0

CCSDS_OMM_VERS = 2.0
CREATION_DATE  = 
ORIGINATOR     = 

OBJECT_NAME    = STARLINK-36864
OBJECT_ID      = 2026-041F
CENTER_NAME    = EARTH
REF_FRAME      = TEME
TIME_SYSTEM    = UTC
MEAN_ELEMENT_THEORY = SGP/SGP4

EPOCH          = 2026-03-22T23:05:18.197088
MEAN_MOTION    = 15.75387065
ECCENTRICITY   = .00007645
INCLINATION    = 53.1594
RA_OF_ASC_NODE = 355.9148
ARG_OF_PERICENTER = 80.4896
MEAN_ANOMALY   = 279.6211

EPHEMERIS_TYPE = 0
CLASSIFICATION_TYPE = U
NORAD_CAT_ID   = 68045
ELEMENT_SET_NO = 999
REV_AT_EPOCH   = 331
BSTAR          = .19232793E-2
MEAN_MOTION_DOT = .307119E-2
MEAN_MOTION_DDOT = 0

CCSDS_OMM_VERS = 2.0
CREATION_DATE  = 
ORIGINATOR     = 

OBJECT_NAME    = STARLINK-36321
OBJECT_ID      = 2026-041G
CENTER_NAME    = EARTH
REF_FRAME      = TEME
TIME_SYSTEM    = UTC
MEAN_ELEMENT_THEORY = SGP/SGP4

EPOCH          = 2026-03-22T20:00:01.999872
MEAN_MOTION    = 15.75278309
ECCENTRICITY   = .00013323
INCLINATION    = 53.1591
RA_OF_ASC_NODE = 356.2380
ARG_OF_PERICENTER = 102.0401
MEAN_ANOMALY   = 42.6292

EPHEMERIS_TYPE = 0
CLASSIFICATION_TYPE = U
NORAD_CAT_ID   = 68046
ELEMENT_SET_NO = 999
REV_AT_EPOCH   = 448
BSTAR          = -.67844047E-3
MEAN_MOTION_DOT = -.103553E-2
MEAN_MOTION_DDOT = 0

