STARLINK-36943          
1 68035U 26040W   26081.83335648 -.00224034  00000+0 -15304-2 0  9992
2 68035  97.2847  30.9675 0002082 111.6564 345.7621 15.75343434  4592
STARLINK-36906          
1 68036U 26040X   26081.83335648 -.00173733  00000+0 -11802-2 0  9991
2 68036  97.2846  30.9608 0001371  70.2607  17.1402 15.75336647  4546
STARLINK-36388          
1 68037U 26040Y   26081.83335648 -.00138950  00000+0 -93993-3 0  9996
2 68037  97.2847  30.9634 0001160  74.5935  20.7844 15.75336709  4497
STARLINK-36895          
1 68038U 26040Z   26081.83335648 -.00102435  00000+0 -69072-3 0  9997
2 68038  97.2854  30.9560 0001376  89.8959 353.5142 15.75303844  4546
STARLINK-36373          
1 68039U 26040AA  26081.83335648 -.00265163  00000+0 -18182-2 0  9991
2 68039  97.2850  30.9544 0001443  93.9205 345.4979 15.75370521  4498
STARLINK-36711          
1 68040U 26041A   26081.96655625  .00312728  00000+0  19514-2 0  9996
2 68040  53.1588 355.9450 0001612  20.4231 339.6854 15.75453789  3312
STARLINK-36825          
1 68041U 26041B   26081.93584820  .00504095  00000+0  23868-2 0  9999
2 68041  53.1589 355.7397 0000932 208.2428 151.8544 15.81094977  3317
STARLINK-36925          
1 68042U 26041C   26081.77654178  .00496695  00000+0  30207-2 0  9997
2 68042  53.1584 356.8928 0001235 155.1515 204.9565 15.75519516  3282
STARLINK-36902          
1 68043U 26041D   26081.93509581  .00518205  00000+0  24524-2 0  9990
2 68043  53.1590 355.7364 0001861 177.6730 182.4302 15.81071249  3311
STARLINK-36966          
1 68044U 26041E   26081.77201951  .00515090  00000+0  31294-2 0  9994
2 68044  53.1590 356.8628 0001204 137.8092 222.3021 15.75490725  3282
STARLINK-36864          
1 68045U 26041F   26081.96201617  .00307119  00000+0  19233-2 0  9995
2 68045  53.1594 355.9148 0000764  80.4896 279.6211 15.75387065  3311
STARLINK-36321          
1 68046U 26041G   26081.83335648 -.00103553  00000+0 -67844-3 0  9994
2 68046  53.1591 356.2380 0001332 102.0401  42.6292 15.75278309  4482
